COSMOS 1933             
1 18958U 88020A   26025.67366863  .00007045  00000+0  34915-3 0  9999
2 18958  82.5140 293.4623 0004564  14.0465 346.0895 15.17585004 43706
SL-3 R/B                
1 19046U 88032B   26025.93158515  .00008960  00000+0  42334-3 0  9994
2 19046  97.5133   9.3749 0027272  27.0183 333.2465 15.19312463 45610
SL-16 R/B               
1 19120U 88039B   26025.50475379 -.00000031  00000+0  81666-5 0  9992
2 19120  71.0146 159.8619 0020222  41.7353 318.5311 14.19608794952258
COSMOS 1953             
1 19210U 88050A   26025.93028329  .00011669  00000+0  43045-3 0  9996
2 19210  82.5076 201.2172 0010405 276.1561  83.8492 15.27606895 31250
SL-8 R/B                
1 19257U 88053B   26025.74971904  .00000413  00000+0  14230-3 0  9994
2 19257  74.0461 191.6065 0019773  20.0251 351.5946 14.38888089970425
COSMOS 1975             
1 19573U 88093A   26025.62531407  .00012353  00000+0  46081-3 0  9991
2 19573  82.5216 160.8725 0010873 326.7163  33.3391 15.27236580 12832
SL-14 R/B               
1 19574U 88093B   26025.64289447  .00000765  00000+0  85274-4 0  9990
2 19574  82.5294  82.4647 0020798 176.3707 347.8981 14.85607336994641
SL-16 R/B               
1 19650U 88102B   26025.60562377 -.00000105  00000+0 -28823-4 0  9995
2 19650  70.9975 242.1474 0011943  73.6315 286.6120 14.16148164920795
INTERCOSMOS 24          
1 20261U 89080A   26025.75265923  .00000690  00000+0  19678-3 0  9998
2 20261  82.6079 132.3429 1188754  32.4822 334.4061 12.59500936661390
SL-14 R/B               
1 20262U 89080C   26025.90740416  .00000428  00000+0  13023-3 0  9998
2 20262  82.5923 200.6553 1229517 282.6078  64.0515 12.50446335654801
DELTA 1 R/B             
1 20323U 89089B   26025.57913369  .00000736  00000+0  19104-3 0  9995
2 20323  97.0732 239.8654 0067567 258.7832 100.5766 14.50621386889481
ARIANE 40 R/B           
1 20443U 90005H   26025.58965407  .00000556  00000+0  19056-3 0  9995
2 20443  98.3175  87.5152 0009532 340.9636  19.1195 14.39838676886605
