CCSDS_OMM_VERS = 2.0
CREATION_DATE  = 
ORIGINATOR     = 

OBJECT_NAME    = COSMOS 1933
OBJECT_ID      = 1988-020A
CENTER_NAME    = EARTH
REF_FRAME      = TEME
TIME_SYSTEM    = UTC
MEAN_ELEMENT_THEORY = SGP/SGP4

EPOCH          = 2026-01-25T16:10:04.969632
MEAN_MOTION    = 15.17585004
ECCENTRICITY   = .00045642
INCLINATION    = 82.5140
RA_OF_ASC_NODE = 293.4623
ARG_OF_PERICENTER = 14.0465
MEAN_ANOMALY   = 346.0895

EPHEMERIS_TYPE = 0
CLASSIFICATION_TYPE = U
NORAD_CAT_ID   = 18958
ELEMENT_SET_NO = 999
REV_AT_EPOCH   = 4370
BSTAR          = .34914895E-3
MEAN_MOTION_DOT = .7045E-4
MEAN_MOTION_DDOT = 0

CCSDS_OMM_VERS = 2.0
CREATION_DATE  = 
ORIGINATOR     = 

OBJECT_NAME    = SL-3 R/B
OBJECT_ID      = 1988-032B
CENTER_NAME    = EARTH
REF_FRAME      = TEME
TIME_SYSTEM    = UTC
MEAN_ELEMENT_THEORY = SGP/SGP4

EPOCH          = 2026-01-25T22:21:28.956960
MEAN_MOTION    = 15.19312463
ECCENTRICITY   = .00272727
INCLINATION    = 97.5133
RA_OF_ASC_NODE = 9.3749
ARG_OF_PERICENTER = 27.0183
MEAN_ANOMALY   = 333.2465

EPHEMERIS_TYPE = 0
CLASSIFICATION_TYPE = U
NORAD_CAT_ID   = 19046
ELEMENT_SET_NO = 999
REV_AT_EPOCH   = 4561
BSTAR          = .42333656E-3
MEAN_MOTION_DOT = .896E-4
MEAN_MOTION_DDOT = 0

CCSDS_OMM_VERS = 2.0
CREATION_DATE  = 
ORIGINATOR     = 

OBJECT_NAME    = SL-16 R/B
OBJECT_ID      = 1988-039B
CENTER_NAME    = EARTH
REF_FRAME      = TEME
TIME_SYSTEM    = UTC
MEAN_ELEMENT_THEORY = SGP/SGP4

EPOCH          = 2026-01-25T12:06:50.727456
MEAN_MOTION    = 14.19608794
ECCENTRICITY   = .00202224
INCLINATION    = 71.0146
RA_OF_ASC_NODE = 159.8619
ARG_OF_PERICENTER = 41.7353
MEAN_ANOMALY   = 318.5311

EPHEMERIS_TYPE = 0
CLASSIFICATION_TYPE = U
NORAD_CAT_ID   = 19120
ELEMENT_SET_NO = 999
REV_AT_EPOCH   = 95225
BSTAR          = .8166611E-5
MEAN_MOTION_DOT = -.31E-6
MEAN_MOTION_DDOT = 0

CCSDS_OMM_VERS = 2.0
CREATION_DATE  = 
ORIGINATOR     = 

OBJECT_NAME    = COSMOS 1953
OBJECT_ID      = 1988-050A
CENTER_NAME    = EARTH
REF_FRAME      = TEME
TIME_SYSTEM    = UTC
MEAN_ELEMENT_THEORY = SGP/SGP4

EPOCH          = 2026-01-25T22:19:36.476256
MEAN_MOTION    = 15.27606895
ECCENTRICITY   = .00104057
INCLINATION    = 82.5076
RA_OF_ASC_NODE = 201.2172
ARG_OF_PERICENTER = 276.1561
MEAN_ANOMALY   = 83.8492

EPHEMERIS_TYPE = 0
CLASSIFICATION_TYPE = U
NORAD_CAT_ID   = 19210
ELEMENT_SET_NO = 999
REV_AT_EPOCH   = 3125
BSTAR          = .43044618E-3
MEAN_MOTION_DOT = .11669E-3
MEAN_MOTION_DDOT = 0

CCSDS_OMM_VERS = 2.0
CREATION_DATE  = 
ORIGINATOR     = 

OBJECT_NAME    = SL-8 R/B
OBJECT_ID      = 1988-053B
CENTER_NAME    = EARTH
REF_FRAME      = TEME
TIME_SYSTEM    = UTC
MEAN_ELEMENT_THEORY = SGP/SGP4

EPOCH          = 2026-01-25T17:59:35.725056
MEAN_MOTION    = 14.38888089
ECCENTRICITY   = .00197731
INCLINATION    = 74.0461
RA_OF_ASC_NODE = 191.6065
ARG_OF_PERICENTER = 20.0251
MEAN_ANOMALY   = 351.5946

EPHEMERIS_TYPE = 0
CLASSIFICATION_TYPE = U
NORAD_CAT_ID   = 19257
ELEMENT_SET_NO = 999
REV_AT_EPOCH   = 97042
BSTAR          = .1422962E-3
MEAN_MOTION_DOT = .413E-5
MEAN_MOTION_DDOT = 0

CCSDS_OMM_VERS = 2.0
CREATION_DATE  = 
ORIGINATOR     = 

OBJECT_NAME    = COSMOS 1975
OBJECT_ID      = 1988-093A
CENTER_NAME    = EARTH
REF_FRAME      = TEME
TIME_SYSTEM    = UTC
MEAN_ELEMENT_THEORY = SGP/SGP4

EPOCH          = 2026-01-25T15:00:27.135648
MEAN_MOTION    = 15.27236580
ECCENTRICITY   = .0010873
INCLINATION    = 82.5216
RA_OF_ASC_NODE = 160.8725
ARG_OF_PERICENTER = 326.7163
MEAN_ANOMALY   = 33.3391

EPHEMERIS_TYPE = 0
CLASSIFICATION_TYPE = U
NORAD_CAT_ID   = 19573
ELEMENT_SET_NO = 999
REV_AT_EPOCH   = 1283
BSTAR          = .46081E-3
MEAN_MOTION_DOT = .12353E-3
MEAN_MOTION_DDOT = 0

CCSDS_OMM_VERS = 2.0
CREATION_DATE  = 
ORIGINATOR     = 

OBJECT_NAME    = SL-14 R/B
OBJECT_ID      = 1988-093B
CENTER_NAME    = EARTH
REF_FRAME      = TEME
TIME_SYSTEM    = UTC
MEAN_ELEMENT_THEORY = SGP/SGP4

EPOCH          = 2026-01-25T15:25:46.082208
MEAN_MOTION    = 14.85607336
ECCENTRICITY   = .0020798
INCLINATION    = 82.5294
RA_OF_ASC_NODE = 82.4647
ARG_OF_PERICENTER = 176.3707
MEAN_ANOMALY   = 347.8981

EPHEMERIS_TYPE = 0
CLASSIFICATION_TYPE = U
NORAD_CAT_ID   = 19574
ELEMENT_SET_NO = 999
REV_AT_EPOCH   = 99464
BSTAR          = .85274E-4
MEAN_MOTION_DOT = .765E-5
MEAN_MOTION_DDOT = 0

CCSDS_OMM_VERS = 2.0
CREATION_DATE  = 
ORIGINATOR     = 

OBJECT_NAME    = SL-16 R/B
OBJECT_ID      = 1988-102B
CENTER_NAME    = EARTH
REF_FRAME      = TEME
TIME_SYSTEM    = UTC
MEAN_ELEMENT_THEORY = SGP/SGP4

EPOCH          = 2026-01-25T14:32:05.893728
MEAN_MOTION    = 14.16148164
ECCENTRICITY   = .0011943
INCLINATION    = 70.9975
RA_OF_ASC_NODE = 242.1474
ARG_OF_PERICENTER = 73.6315
MEAN_ANOMALY   = 286.6120

EPHEMERIS_TYPE = 0
CLASSIFICATION_TYPE = U
NORAD_CAT_ID   = 19650
ELEMENT_SET_NO = 999
REV_AT_EPOCH   = 92079
BSTAR          = -.28823E-4
MEAN_MOTION_DOT = -.105E-5
MEAN_MOTION_DDOT = 0

CCSDS_OMM_VERS = 2.0
CREATION_DATE  = 
ORIGINATOR     = 

OBJECT_NAME    = INTERCOSMOS 24
OBJECT_ID      = 1989-080A
CENTER_NAME    = EARTH
REF_FRAME      = TEME
TIME_SYSTEM    = UTC
MEAN_ELEMENT_THEORY = SGP/SGP4

EPOCH          = 2026-01-25T18:03:49.757472
MEAN_MOTION    = 12.59500936
ECCENTRICITY   = .11887549
INCLINATION    = 82.6079
RA_OF_ASC_NODE = 132.3429
ARG_OF_PERICENTER = 32.4822
MEAN_ANOMALY   = 334.4061

EPHEMERIS_TYPE = 0
CLASSIFICATION_TYPE = U
NORAD_CAT_ID   = 20261
ELEMENT_SET_NO = 999
REV_AT_EPOCH   = 66139
BSTAR          = .19678468E-3
MEAN_MOTION_DOT = .69E-5
MEAN_MOTION_DDOT = 0

CCSDS_OMM_VERS = 2.0
CREATION_DATE  = 
ORIGINATOR     = 

OBJECT_NAME    = SL-14 R/B
OBJECT_ID      = 1989-080C
CENTER_NAME    = EARTH
REF_FRAME      = TEME
TIME_SYSTEM    = UTC
MEAN_ELEMENT_THEORY = SGP/SGP4

EPOCH          = 2026-01-25T21:46:39.719424
MEAN_MOTION    = 12.50446335
ECCENTRICITY   = .1229517
INCLINATION    = 82.5923
RA_OF_ASC_NODE = 200.6553
ARG_OF_PERICENTER = 282.6078
MEAN_ANOMALY   = 64.0515

EPHEMERIS_TYPE = 0
CLASSIFICATION_TYPE = U
NORAD_CAT_ID   = 20262
ELEMENT_SET_NO = 999
REV_AT_EPOCH   = 65480
BSTAR          = .13022876E-3
MEAN_MOTION_DOT = .428E-5
MEAN_MOTION_DDOT = 0

CCSDS_OMM_VERS = 2.0
CREATION_DATE  = 
ORIGINATOR     = 

OBJECT_NAME    = DELTA 1 R/B
OBJECT_ID      = 1989-089B
CENTER_NAME    = EARTH
REF_FRAME      = TEME
TIME_SYSTEM    = UTC
MEAN_ELEMENT_THEORY = SGP/SGP4

EPOCH          = 2026-01-25T13:53:57.150816
MEAN_MOTION    = 14.50621386
ECCENTRICITY   = .0067567
INCLINATION    = 97.0732
RA_OF_ASC_NODE = 239.8654
ARG_OF_PERICENTER = 258.7832
MEAN_ANOMALY   = 100.5766

EPHEMERIS_TYPE = 0
CLASSIFICATION_TYPE = U
NORAD_CAT_ID   = 20323
ELEMENT_SET_NO = 999
REV_AT_EPOCH   = 88948
BSTAR          = .19104E-3
MEAN_MOTION_DOT = .736E-5
MEAN_MOTION_DDOT = 0

CCSDS_OMM_VERS = 2.0
CREATION_DATE  = 
ORIGINATOR     = 

OBJECT_NAME    = ARIANE 40 R/B
OBJECT_ID      = 1990-005H
CENTER_NAME    = EARTH
REF_FRAME      = TEME
TIME_SYSTEM    = UTC
MEAN_ELEMENT_THEORY = SGP/SGP4

EPOCH          = 2026-01-25T14:09:06.111648
MEAN_MOTION    = 14.39838676
ECCENTRICITY   = .0009532
INCLINATION    = 98.3175
RA_OF_ASC_NODE = 87.5152
ARG_OF_PERICENTER = 340.9636
MEAN_ANOMALY   = 19.1195

EPHEMERIS_TYPE = 0
CLASSIFICATION_TYPE = U
NORAD_CAT_ID   = 20443
ELEMENT_SET_NO = 999
REV_AT_EPOCH   = 88660
BSTAR          = .19056E-3
MEAN_MOTION_DOT = .556E-5
MEAN_MOTION_DDOT = 0

